[{"OBJECT_NAME":"TEVEL2-6","OBJECT_ID":"2025-052F","EPOCH":"2026-03-09T15:35:24.554400","MEAN_MOTION":15.30760889,"ECCENTRICITY":0.0004769,"INCLINATION":97.4016,"RA_OF_ASC_NODE":325.0381,"ARG_OF_PERICENTER":95.6604,"MEAN_ANOMALY":264.5181,"EPHEMERIS_TYPE":0,"CLASSIFICATION_TYPE":"U","NORAD_CAT_ID":63215,"ELEMENT_SET_NO":999,"REV_AT_EPOCH":5486,"BSTAR":0.00070909,"MEAN_MOTION_DOT":0.00021046,"MEAN_MOTION_DDOT":0},{"OBJECT_NAME":"STARLINK-35846","OBJECT_ID":"2025-254V","EPOCH":"2026-03-09T17:01:50.596896","MEAN_MOTION":15.30210278,"ECCENTRICITY":0.00010302,"INCLINATION":53.1604,"RA_OF_ASC_NODE":232.0046,"ARG_OF_PERICENTER":136.8276,"MEAN_ANOMALY":223.2806,"EPHEMERIS_TYPE":0,"CLASSIFICATION_TYPE":"U","NORAD_CAT_ID":66367,"ELEMENT_SET_NO":999,"REV_AT_EPOCH":1898,"BSTAR":0.0014114954,"MEAN_MOTION_DOT":0.00041693,"MEAN_MOTION_DDOT":0}]
